KUIPER-00079            
1 64826U 25151L   25206.50001157  .00050825  00000+0  14415-2 0  9990
2 64826  51.8778 243.0811 0006035 164.0220 155.5906 15.35716097  1301
KUIPER-00080            
1 64827U 25151M   25206.50001157  .00050043  00000+0  14328-2 0  9996
2 64827  51.8782 243.1033 0005043 174.2615 135.7961 15.35431762  1554
KUIPER-00082            
1 64828U 25151N   25206.50001157  .00051280  00000+0  14623-2 0  9999
2 64828  51.8776 243.0911 0005450 169.8940 143.8541 15.35545496  1548
KUIPER-00083            
1 64829U 25151P   25206.50001157  .00051019  00000+0  14754-2 0  9995
2 64829  51.8771 243.1114 0005445 177.3350 125.8293 15.35107778  2602
KUIPER-00084            
1 64830U 25151Q   25206.50001157  .00051489  00000+0  14937-2 0  9991
2 64830  51.8780 243.1306 0005869 191.2033 104.5229 15.35002610  1308
KUIPER-00085            
1 64831U 25151R   25206.50001157  .00051046  00000+0  14493-2 0  9998
2 64831  51.8778 243.0830 0006031 164.9151 153.6968 15.35680836  2361
KUIPER-00086            
1 64832U 25151S   25206.50001157  .00051844  00000+0  15047-2 0  9991
2 64832  51.8772 243.1231 0005964 187.9871 110.2354 15.34984398  1300
KUIPER-00087            
1 64833U 25151T   25206.50001157  .00051587  00000+0  14777-2 0  9995
2 64833  51.8781 243.0963 0005505 166.5308 146.5644 15.35401081  2557
